1 25980U 99065A   19273.24678724 +.00000043 +00000-0 +66803-4 0  9999
2 25980 045.0323 194.9690 0006205 035.7897 324.3365 14.32806377034894
1 25980U 99065A   19274.08349855  .00000050  00000-0  69410-4 0  9997
2 25980  45.0323 191.0374 0006166  40.4478 319.6826 14.32806718 35546
1 25980U 99065A   19274.85048359 +.00000055 +00000-0 +71234-4 0  9999
2 25980 045.0324 187.4334 0006126 044.7693 315.3647 14.32807088035123
1 25980U 99065A   19275.12938725  .00000055  00000-0  71202-4 0  9990
2 25980  45.0324 186.1229 0006116  46.3525 313.7828 14.32807208 35692
1 25980U 99065A   19275.26883904 +.00000055 +00000-0 +71133-4 0  9996
2 25980 045.0324 185.4677 0006112 047.1449 312.9910 14.32807277035184
1 25980U 99065A   19276.24500147  .00000051  00000-0  69701-4 0  9994
2 25980  45.0325 180.8809 0006075  52.6665 307.4734 14.32807701 35859
1 25980U 99065A   19276.87253422 +.00000051 +00000-0 +69801-4 0  9995
2 25980 045.0325 177.9322 0006048 056.2750 303.8673 14.32807986035410
1 25980U 99065A   19277.77897033  .00000039  00000-0  65450-4 0  9999
2 25980  45.0325 173.6731 0006017  61.4245 298.7206 14.32808258 36070
1 25980U 99065A   19277.84869621 +.00000037 +00000-0 +64572-4 0  9991
2 25980 045.0325 173.3454 0006020 061.8617 298.2838 14.32808269035550
1 25980U 99065A   19278.89458381 +.00000017 +00000-0 +57258-4 0  9995
2 25980 045.0324 168.4310 0006001 067.9998 292.1485 14.32808455035708
1 25980U 99065A   19279.10376131  .00000015  00000-0  56676-4 0  9993
2 25980  45.0324 167.4482 0006004  69.2238 290.9251 14.32808498 36268
1 25980U 99065A   19279.87074513 +.00000014 +00000-0 +56155-4 0  9997
2 25980 045.0323 163.8443 0005991 073.6718 286.4787 14.32808707035840
1 25980U 99065A   19280.14964830  .00000023  00000-0  59690-4 0  9996
2 25980  45.0323 162.5338 0006004  75.3229 284.8283 14.32808842 36418
1 25980U 99065A   19280.84690606 +.00000029 +00000-0 +61627-4 0  9999
2 25980 045.0322 159.2574 0005999 079.4212 280.7311 14.32809072035985
1 25980U 99065A   19281.75334082  .00000039  00000-0  65454-4 0  9996
2 25980  45.0321 154.9982 0006012  84.7266 275.4266 14.32809442 36649
1 25980U 99065A   19281.89279227 +.00000048 +00000-0 +68697-4 0  9992
2 25980 045.0321 154.3430 0006011 085.5089 274.6444 14.32809549036133
1 25980U 99065A   19282.86895230 +.00000061 +00000-0 +73223-4 0  9994
2 25980 045.0320 149.7560 0006029 091.2603 268.8934 14.32810027036276
1 25980U 99065A   19283.07812942  .00000065  00000-0  74972-4 0  9993
2 25980  45.0320 148.7732 0006032  92.3942 267.7595 14.32810141 36838
1 25980U 99065A   19283.84511194 +.00000068 +00000-0 +75821-4 0  9990
2 25980 045.0320 145.1691 0006044 096.8973 263.2561 14.32810512036419
1 25980U 99065A   19284.75154555  .00000072  00000-0  77541-4 0  9991
2 25980  45.0320 140.9098 0006067 102.1449 258.0077 14.32810955 37075
1 25980U 99065A   19284.89099686 +.00000075 +00000-0 +78401-4 0  9998
2 25980 045.0320 140.2546 0006074 102.9373 257.2152 14.32811024036564
